ATLANTIS                
1 42737U 98067MS  17202.88822745  .00018427  00000-0  25633-3 0  9993
2 42737  51.6376 224.6102 0009697  63.2569 296.9415 15.56978438  8697
LEMUR-2-ANGELA          
1 42752U 17019B   17202.53702841  .00000252  00000-0  22275-4 0  9991
2 42752  51.6403 235.6298 0011475 103.3626 256.8633 15.27486725  6540
LEMUR-2-JENNYBARNA      
1 42753U 17019C   17202.73233942  .00001187  00000-0  56365-4 0  9990
2 42753  51.6412 234.6838 0011336 104.2298 255.9941 15.27549965  6527
LEMUR-2-ROBMOORE        
1 42754U 17019D   17202.53890824  .00000263  00000-0  22707-4 0  9994
2 42754  51.6404 235.6412 0011425 105.9657 254.2582 15.27418126  6521
LEMUR-2-SPIROVISION     
1 42755U 17019E   17202.66911577  .00000354  00000-0  26005-4 0  9994
2 42755  51.6401 235.0102 0011380 106.0151 254.2083 15.27456034  6436
UCLSAT                  
1 42765U 17036A   17202.89491024  .00001409  00000-0  67080-4 0  9999
2 42765  97.4478 262.3271 0013086 146.9954 213.2101 15.20724024  5084
LITUANICASAT-2          
1 42768U 17036D   17202.91658123  .00002195  00000-0  10595-3 0  9991
2 42768  97.4478 262.2978 0017726 137.8048 222.4555 15.19599964  4375
INFLATESAIL             
1 42770U 17036F   17202.91679692  .00165253  00000-0  59198-2 0  9994
2 42770  97.4501 262.4482 0016235 180.4599 179.6628 15.27925733  4310
LEMUR-2-SHAINAJOHL      
1 42771U 17036G   17202.91335142  .00002147  00000-0  10326-3 0  9997
2 42771  97.4478 262.3031 0016714 136.8693 223.3854 15.19766462  4316
LEMUR-2-XUENITERENCE    
1 42772U 17036H   17202.91228473  .00002088  00000-0  10038-3 0  9990
2 42772  97.4478 262.3040 0016441 136.3384 223.9155 15.19820764  4312
LEMUR-2-LUCYBRYCE       
1 42773U 17036J   17202.91136506  .00002279  00000-0  10911-3 0  9998
2 42773  97.4478 262.3055 0016227 136.3648 223.8873 15.19871184  4312
LEMUR-2-KUNGFOO         
1 42774U 17036K   17202.91087377  .00001743  00000-0  84158-4 0  9990
2 42774  97.4480 262.3073 0016117 136.2726 223.9788 15.19889358  4307
AALTO-1                 
1 42775U 17036L   17202.90895256  .00000986  00000-0  48881-4 0  9994
2 42775  97.4479 262.3095 0015698 135.0974 225.1534 15.19968117  4310
URSA MAIOR              
1 42776U 17036M   17202.90825824  .00001018  00000-0  50313-4 0  9999
2 42776  97.4481 262.3113 0015576 135.4252 224.8239 15.20005403  4313
COMPASS 2               
1 42777U 17036N   17202.90350258  .00001888  00000-0  89932-4 0  9998
2 42777  97.4489 262.3214 0014612 139.3623 220.8705 15.20281069  4306
LEMUR-2-LYNSEY-SYMO     
1 42779U 17036Q   17202.89986497  .00002013  00000-0  95131-4 0  9997
2 42779  97.4482 262.3227 0014037 145.4132 214.8019 15.20477144  4299
LEMUR-2-LISASAURUS      
1 42780U 17036R   17202.89931854  .00001774  00000-0  84191-4 0  9993
2 42780  97.4479 262.3221 0013893 145.2061 215.0085 15.20499285  4307
LEMUR-2-SAM-AMELIA      
1 42781U 17036S   17202.89898556  .00002106  00000-0  99271-4 0  9990
2 42781  97.4479 262.3221 0013859 145.4925 214.7213 15.20528626  4290
LEMUR-2-MCPEAKE         
1 42782U 17036T   17202.89845387  .00002018  00000-0  95194-4 0  9997
2 42782  97.4481 262.3237 0013716 145.2994 214.9139 15.20555980  4299
DIAMOND RED             
1 42783U 17036U   17202.89782090  .00001193  00000-0  57572-4 0  9990
2 42783  97.4479 262.3239 0013696 146.8794 213.3302 15.20561825  4303
PEGASUS                 
1 42784U 17036V   17202.89731243  .00001352  00000-0  64753-4 0  9991
2 42784  97.4480 262.3250 0013615 147.0273 213.1814 15.20594172  4302
DIAMOND GREEN           
1 42785U 17036W   17202.89710209  .00001178  00000-0  56797-4 0  9996
2 42785  97.4481 262.3257 0013554 146.9288 213.2797 15.20600355  4376
DIAMOND BLUE            
1 42786U 17036X   17202.89620296  .00001035  00000-0  50217-4 0  9996
2 42786  97.4480 262.3265 0013366 147.2121 212.9946 15.20647114  4372
NUDTSAT                 
1 42787U 17036Y   17202.89548825  .00001994  00000-0  93679-4 0  9997
2 42787  97.4479 262.3270 0013297 147.2867 212.9195 15.20710417  4145
SUCHAI                  
1 42788U 17036Z   17202.89567625  .00001585  00000-0  75166-4 0  9994
2 42788  97.4479 262.3266 0013280 147.1401 213.0662 15.20687239  4377
SKCUBE                  
1 42789U 17036AA  17202.89486429  .00001497  00000-0  71102-4 0  9995
2 42789  97.4478 262.3274 0013087 147.0219 213.1835 15.20728191  4294
VZLUSAT-1               
1 42790U 17036AB  17202.89356608  .00001734  00000-0  81655-4 0  9990
2 42790  97.4476 262.3279 0012831 147.3357 212.8674 15.20803715  4294
ROBUSTA-1B              
1 42792U 17036AD  17202.89258782  .00001555  00000-0  73488-4 0  9992
2 42792  97.4476 262.3291 0012621 147.9951 212.2054 15.20850027  4309
CICERO 6                
1 42793U 17036AE  17202.88866149  .00001025  00000-0  49252-4 0  9998
2 42793  97.4475 262.3341 0011652 148.1937 212.0004 15.21044808  4378
D-SAT                   
1 42794U 17036AF  17202.88722453  .00000915  00000-0  44198-4 0  9999
2 42794  97.4473 262.3351 0010869 145.1477 215.0473 15.21117107  4290
1998-067MU              
1 42820U 98067MU  17202.42996199  .00006488  00000-0  10133-3 0  9994
2 42820  51.6386 227.5492 0004224  20.1301 339.9856 15.55164399  2190
1998-067MV              
1 42821U 98067MV  17202.43027839  .00006307  00000-0  98846-4 0  9990
2 42821  51.6385 227.5517 0004223  22.2516 337.8658 15.55124734  2172
1998-067MW              
1 42822U 98067MW  17202.88036878  .00008404  00000-0  12940-3 0  9993
2 42822  51.6385 225.3073 0004277  25.4132 334.7069 15.55109066  2256
1998-067MX              
1 42823U 98067MX  17202.43097141  .00006533  00000-0  10236-3 0  9992
2 42823  51.6388 227.5571 0007945  35.7020 324.4501 15.55053594  2174
1998-067MY              
1 42824U 98067MY  17202.36716991  .00006302  00000-0  99194-4 0  9991
2 42824  51.6385 227.8814 0007815  36.1727 323.9791 15.54999233  2173
FLOCK 2K-03             
1 42850U 17042AB  17202.25930611  .00002935  00000-0  96261-4 0  9999
2 42850  97.0025 110.8915 0011080 224.1354 135.9006 15.32308509   875
FLOCK 2K-04             
1 42851U 17042AC  17202.25931833  .00001626  00000-0  54366-4 0  9993
2 42851  97.0023 110.8914 0010708 224.0623 135.9768 15.32288446   879
FLOCK 2K-01             
1 42852U 17042AD  17202.71632672  .00001873  00000-0  62234-4 0  9991
2 42852  97.0022 111.3241 0010725 221.7424 138.3002 15.32318317   947
FLOCK 2K-02             
1 42853U 17042AE  17202.25917532  .00001686  00000-0  56241-4 0  9995
2 42853  97.0026 110.8919 0010548 223.1989 136.8427 15.32321849   873
FLOCK 2K-47             
1 42854U 17042AF  17202.25902042  .00001256  00000-0  42419-4 0  9991
2 42854  97.0024 110.8917 0010560 222.0815 137.9618 15.32358492   878
FLOCK 2K-48             
1 42855U 17042AG  17202.25897023  .00001649  00000-0  54987-4 0  9993
2 42855  97.0024 110.8920 0010544 222.2213 137.8219 15.32368828   879
FLOCK 2K-45             
1 42856U 17042AH  17202.71596528  .00001873  00000-0  62091-4 0  9995
2 42856  97.0022 111.3244 0010612 220.0754 139.9707 15.32396332   949
FLOCK 2K-24             
1 42857U 17042AJ  17202.25871175  .00001268  00000-0  42711-4 0  9994
2 42857  97.0023 110.8920 0010516 220.8292 139.2164 15.32429755   872
FLOCK 2K-46             
1 42858U 17042AK  17202.25869438  .00001232  00000-0  41581-4 0  9999
2 42858  97.0027 110.8926 0010652 220.9144 139.1300 15.32432875   879
FLOCK 2K-23             
1 42859U 17042AL  17202.71575973  .00001626  00000-0  54119-4 0  9997
2 42859  97.0026 111.3251 0010649 219.0533 140.9942 15.32440707   946
FLOCK 2K-21             
1 42860U 17042AM  17202.71564557  .00001660  00000-0  55152-4 0  9991
2 42860  97.0025 111.3251 0010630 218.4776 141.5710 15.32465884   942
FLOCK 2K-22             
1 42861U 17042AN  17202.25844723  .00001262  00000-0  42443-4 0  9994
2 42861  97.0027 110.8929 0010648 220.0315 140.0145 15.32490705   876
FLOCK 2K-07             
1 42862U 17042AP  17202.71532433  .00001644  00000-0  54544-4 0  9997
2 42862  97.0026 111.3256 0010797 217.5682 142.4808 15.32534813   958
FLOCK 2K-08             
1 42863U 17042AQ  17202.71525385  .00001903  00000-0  62749-4 0  9990
2 42863  97.0021 111.3251 0010818 218.1469 141.9009 15.32549974   943
FLOCK 2K-05             
1 42864U 17042AR  17202.25807173  .00001268  00000-0  42524-4 0  9991
2 42864  97.0025 110.8932 0010859 219.2962 140.7494 15.32577338   875
FLOCK 2K-40             
1 42865U 17042AS  17202.25801620  .00001692  00000-0  55976-4 0  9999
2 42865  97.0023 110.8933 0010770 219.8820 140.1632 15.32589109   873
FLOCK 2K-39             
1 42866U 17042AT  17202.71502613  .00001788  00000-0  58991-4 0  9997
2 42866  97.0022 111.3257 0010897 217.7656 142.2823 15.32598281   946
FLOCK 2K-37             
1 42867U 17042AU  17202.78029703  .00001681  00000-0  55587-4 0  9999
2 42867  97.0025 111.3878 0010838 217.1349 142.9145 15.32604364   952
FLOCK 2K-38             
1 42868U 17042AV  17202.71486765  .00001917  00000-0  63012-4 0  9992
2 42868  97.0022 111.3260 0010898 217.6958 142.3523 15.32633407   945
FLOCK 2K-31             
1 42869U 17042AW  17202.25770914  .00001283  00000-0  42902-4 0  9995
2 42869  97.0025 110.8934 0010949 218.9907 141.0547 15.32661128   871
FLOCK 2K-32             
1 42870U 17042AX  17202.25762400  .00001258  00000-0  42058-4 0  9992
2 42870  97.0026 110.8938 0010973 219.3493 140.6954 15.32680681   872
FLOCK 2K-29             
1 42871U 17042AY  17202.51874089  .00001685  00000-0  55582-4 0  9999
2 42871  97.0026 111.1413 0010999 217.9348 142.1122 15.32690436   914
FLOCK 2K-30             
1 42872U 17042AZ  17202.25743434  .00001343  00000-0  44701-4 0  9992
2 42872  97.0025 110.8938 0011073 219.2983 140.7457 15.32724752   875
FLOCK 2K-44             
1 42873U 17042BA  17202.71415714  .00002087  00000-0  68071-4 0  9993
2 42873  97.0026 111.3274 0012093 207.1889 152.8722 15.32788041   948
